{
    "links": {
        "self": "http://www.neowsapp.com/rest/v1/neo/3719379?api_key=iIulBulltgU6a56xZRHN4H3l9WmuAYTsLGpBGhQ2"
    },
    "id": "3719379",
    "neo_reference_id": "3719379",
    "name": "(2015 HZ181)",
    "designation": "2015 HZ181",
    "nasa_jpl_url": "http://ssd.jpl.nasa.gov/sbdb.cgi?sstr=3719379",
    "absolute_magnitude_h": 26.3,
    "estimated_diameter": {
        "kilometers": {
            "estimated_diameter_min": 0.0146067964,
            "estimated_diameter_max": 0.0326617897
        },
        "meters": {
            "estimated_diameter_min": 14.6067964271,
            "estimated_diameter_max": 32.6617897446
        },
        "miles": {
            "estimated_diameter_min": 0.0090762397,
            "estimated_diameter_max": 0.020295089
        },
        "feet": {
            "estimated_diameter_min": 47.92256199,
            "estimated_diameter_max": 107.1581062656
        }
    },
    "is_potentially_hazardous_asteroid": false,
    "close_approach_data": [
        {
            "close_approach_date": "2015-04-10",
            "close_approach_date_full": "2015-Apr-10 14:41",
            "epoch_date_close_approach": 1428676860000,
            "relative_velocity": {
                "kilometers_per_second": "8.7748521884",
                "kilometers_per_hour": "31589.4678783989",
                "miles_per_hour": "19628.4668603307"
            },
            "miss_distance": {
                "astronomical": "0.0750365619",
                "lunar": "29.1892225791",
                "kilometers": "11225309.832363153",
                "miles": "6975084.0908833914"
            },
            "orbiting_body": "Earth"
        }
    ],
    "orbital_data": {
        "orbit_id": "3",
        "orbit_determination_date": "2017-04-06 08:33:58",
        "first_observation_date": "2015-04-19",
        "last_observation_date": "2015-04-22",
        "data_arc_in_days": 3,
        "observations_used": 11,
        "orbit_uncertainty": "9",
        "minimum_orbit_intersection": ".0687842",
        "jupiter_tisserand_invariant": "3.504",
        "epoch_osculation": "2457133.5",
        "eccentricity": ".5114958723628624",
        "semi_major_axis": "2.153862613392184",
        "inclination": "10.14247518833371",
        "ascending_node_longitude": "24.80117221518328",
        "orbital_period": "1154.583704481569",
        "perihelion_distance": "1.052170777005394",
        "perihelion_argument": "156.6812550564035",
        "aphelion_distance": "3.255554449778974",
        "perihelion_time": "2457107.817464843564",
        "mean_anomaly": "8.007832277927797",
        "mean_motion": ".311800693706869",
        "equinox": "J2000",
        "orbit_class": {
            "orbit_class_type": "AMO",
            "orbit_class_description": "Near-Earth asteroid orbits similar to that of 1221 Amor",
            "orbit_class_range": "1.017 AU < q (perihelion) < 1.3 AU"
        }
    },
    "is_sentry_object": false
}